NORAD_CAT_ID,OBJECT_NAME,OBJECT_TYPE,EPOCH,MEAN_MOTION,ECCENTRICITY,INCLINATION,RA_OF_ASC_NODE,ARG_OF_PERICENTER,MEAN_ANOMALY,BSTAR,MEAN_MOTION_DOT,MEAN_MOTION_DDOT,TLE_LINE0,TLE_LINE1,TLE_LINE2,SEMIMAJOR_AXIS,PERIOD,APOGEE,PERIGEE,DECAYED
53889.0,STARLINK-5031,PAYLOAD,2023-08-28 18:44:50,15.08864019,0.0001151,53.2161,151.8555,79.59,280.5222,0.00022001,3.218e-05,0.0,0 STARLINK-5031,1 53889U 22119D   23240.78113803  .00003218  00000-0  22001-3 0  9992,2 53889  53.2161 151.8555 0001151  79.5900 280.5222 15.08864019 52203,6917.807,95.436,540.468,538.876,0.0
53889.0,STARLINK-5031,PAYLOAD,2023-08-29 01:06:25,15.08832291,0.0001358,53.2168,150.6654,83.6119,276.5027,-1.833e-05,-5.8e-06,0.0,0 STARLINK-5031,1 53889U 22119D   23241.04612468 -.00000580  00000-0 -18330-4 0  9995,2 53889  53.2168 150.6654 0001358  83.6119 276.5027 15.08832291 51826,6917.904,95.438,540.708,538.83,0.0
53889.0,STARLINK-5031,PAYLOAD,2023-08-29 10:38:44,15.0882816,0.000139,53.2169,148.8815,81.8971,278.2179,-5.5427e-05,-1.17e-05,0.0,0 STARLINK-5031,1 53889U 22119D   23241.44357012 -.00001170  00000-0 -55427-4 0  9994,2 53889  53.2169 148.8815 0001390  81.8971 278.2179 15.08828160 52308,6917.917,95.438,540.743,538.82,0.0
53889.0,STARLINK-5031,PAYLOAD,2023-08-29 23:21:53,15.08790991,0.0001344,53.217,146.5036,93.1426,266.972,-0.00039655,-6.585e-05,0.0,0 STARLINK-5031,1 53889U 22119D   23241.97353447 -.00006585  00000-0 -39655-3 0  9999,2 53889  53.2170 146.5036 0001344  93.1426 266.9720 15.08790991 51967,6918.03,95.441,540.825,538.965,0.0
53889.0,STARLINK-5031,PAYLOAD,2023-08-30 04:08:00,15.0882261,0.0001393,53.2173,145.6137,125.5142,234.598,-0.00019925,-3.456e-05,0.0,0 STARLINK-5031,1 53889U 22119D   23242.17223196 -.00003456  00000-0 -19925-3 0  9991,2 53889  53.2173 145.6137 0001393 125.5142 234.5980 15.08822610 51997,6917.934,95.439,540.762,538.835,0.0
53889.0,STARLINK-5031,PAYLOAD,2023-08-30 10:29:32,15.08842936,0.0001677,53.2172,144.4244,93.82,266.2984,-4.3862e-05,-9.86e-06,0.0,0 STARLINK-5031,1 53889U 22119D   23242.43717838 -.00000986  00000-0 -43862-4 0  9994,2 53889  53.2172 144.4244 0001677  93.8200 266.2984 15.08842936 52034,6917.871,95.437,540.897,538.576,0.0
53889.0,STARLINK-5031,PAYLOAD,2023-08-31 03:58:45,15.0884266,9.83e-05,53.2169,141.1547,106.146,253.964,0.000309,4.634e-05,0.0,0 STARLINK-5031,1 53889U 22119D   23243.16580451  .00004634  00000-0  30900-3 0  9994,2 53889  53.2169 141.1547 0000983 106.1460 253.9640 15.08842660 52143,6917.872,95.437,540.417,539.057,0.0
53889.0,STARLINK-5031,PAYLOAD,2023-09-01 02:14:12,15.08763005,9.98e-05,53.214,136.9948,136.1008,224.0064,0.00083608,0.00013015,0.0,0 STARLINK-5031,1 53889U 22119D   23244.09320338  .00013015  00000-0  83608-3 0  9999,2 53889  53.2140 136.9948 0000998 136.1008 224.0064 15.08763005 52285,6918.116,95.442,540.671,539.29,0.0
53889.0,STARLINK-5031,PAYLOAD,2023-09-01 10:11:07,15.08795131,0.0001359,53.2139,135.5059,99.8059,260.3086,0.00098752,0.00015444,0.0,0 STARLINK-5031,1 53889U 22119D   23244.42439433  .00015444  00000-0  98752-3 0  9997,2 53889  53.2139 135.5059 0001359  99.8059 260.3086 15.08795131 52332,6918.018,95.44,540.823,538.942,0.0
53889.0,STARLINK-5031,PAYLOAD,2023-09-01 16:32:38,15.08849102,4.62e-05,53.216,134.3131,104.8112,255.2931,5.6665e-05,6.15e-06,0.0,0 STARLINK-5031,1 53889U 22119D   23244.68933299  .00000615  00000-0  56665-4 0  9996,2 53889  53.2160 134.3131 0000462 104.8112 255.2931 15.08849102 52379,6917.853,95.437,540.037,539.398,0.0
53889.0,STARLINK-5031,PAYLOAD,2023-09-01 22:54:09,15.0885626,1.36e-05,53.215,133.1234,191.9157,168.1832,0.00011107,1.481e-05,0.0,0 STARLINK-5031,1 53889U 22119D   23244.95427915  .00001481  00000-0  11107-3 0  9992,2 53889  53.2150 133.1234 0000136 191.9157 168.1832 15.08856260 52413,6917.831,95.437,539.79,539.602,0.0
53889.0,STARLINK-5031,PAYLOAD,2023-09-02 10:01:52,15.08855107,7e-05,53.2159,131.0393,87.2905,272.8167,8.9397e-05,1.136e-05,0.0,0 STARLINK-5031,1 53889U 22119D   23245.41796322  .00001136  00000-0  89397-4 0  9999,2 53889  53.2159 131.0393 0000700  87.2905 272.8167 15.08855107 52480,6917.834,95.437,540.183,539.215,0.0
53889.0,STARLINK-5031,PAYLOAD,2023-09-02 16:23:25,15.0883985,0.0001635,53.2148,129.8499,89.1818,270.9361,2.0798e-05,4.3e-07,0.0,0 STARLINK-5031,1 53889U 22119D   23245.68293578  .00000043  00000-0  20798-4 0  9999,2 53889  53.2148 129.8499 0001635  89.1818 270.9361 15.08839850 52529,6917.881,95.438,540.877,538.615,0.0
53889.0,STARLINK-5031,PAYLOAD,2023-09-02 19:34:11,15.08840429,0.0001681,53.2142,129.2547,91.5313,268.5871,3.2047e-05,2.22e-06,0.0,0 STARLINK-5031,1 53889U 22119D   23245.81541509  .00000222  00000-0  32047-4 0  9993,2 53889  53.2142 129.2547 0001681  91.5313 268.5871 15.08840429 52960,6917.879,95.438,540.907,538.581,0.0
53889.0,STARLINK-5031,PAYLOAD,2023-09-03 09:52:40,15.0884,0.0001575,53.2157,126.5786,91.877,268.2402,2.3865e-05,9.2e-07,0.0,0 STARLINK-5031,1 53889U 22119D   23246.41157549  .00000092  00000-0  23865-4 0  9990,2 53889  53.2157 126.5786 0001575  91.8770 268.2402 15.08840000 53056,6917.88,95.438,540.835,538.656,0.0
53889.0,STARLINK-5031,PAYLOAD,2023-09-04 01:46:31,15.0884461,8.11e-05,53.2186,123.6036,92.6716,267.4369,-2.9997e-05,-7.65e-06,0.0,0 STARLINK-5031,1 53889U 22119D   23247.07397208 -.00000765  00000-0 -29997-4 0  9992,2 53889  53.2186 123.6036 0000811  92.6716 267.4369 15.08844610 52733,6917.866,95.437,540.292,539.17,0.0
53889.0,STARLINK-5031,PAYLOAD,2023-09-04 20:51:09,15.08842011,0.0001653,53.2183,120.0354,90.1909,269.9273,-4.0972e-05,-9.4e-06,0.0,0 STARLINK-5031,1 53889U 22119D   23247.86885562 -.00000940  00000-0 -40972-4 0  9995,2 53889  53.2183 120.0354 0001653  90.1909 269.9273 15.08842011 53270,6917.874,95.437,540.883,538.596,0.0
53889.0,STARLINK-5031,PAYLOAD,2023-09-04 22:26:33,15.08792005,0.0001701,53.2183,119.7381,95.7573,264.3613,0.0006738,0.00010438,0.0,0 STARLINK-5031,1 53889U 22119D   23247.93511012  .00010438  00000-0  67380-3 0  9991,2 53889  53.2183 119.7381 0001701  95.7573 264.3613 15.08792005 52865,6918.027,95.441,541.069,538.715,0.0
53889.0,STARLINK-5031,PAYLOAD,2023-09-06 01:28:05,15.08840736,0.0001337,53.217,114.6848,88.2329,271.8817,6.8857e-05,8.08e-06,0.0,0 STARLINK-5031,1 53889U 22119D   23249.06117617  .00000808  00000-0  68857-4 0  9991,2 53889  53.2170 114.6848 0001337  88.2329 271.8817 15.08840736 53038,6917.878,95.438,540.668,538.818,0.0
53889.0,STARLINK-5031,PAYLOAD,2023-09-06 22:08:06,15.08837881,0.0001344,53.2162,110.818,76.1413,283.9729,5.1766e-05,5.36e-06,0.0,0 STARLINK-5031,1 53889U 22119D   23249.92230079  .00000536  00000-0  51766-4 0  9993,2 53889  53.2162 110.8180 0001344  76.1413 283.9729 15.08837881 53587,6917.887,95.438,540.682,538.822,0.0
53889.0,STARLINK-5031,PAYLOAD,2023-09-07 01:18:52,15.08838705,0.0001353,53.2168,110.224,84.2591,275.8555,5.8577e-05,6.44e-06,0.0,0 STARLINK-5031,1 53889U 22119D   23250.05478008  .00000644  00000-0  58577-4 0  9992,2 53889  53.2168 110.2240 0001353  84.2591 275.8555 15.08838705 53180,6917.884,95.438,540.685,538.813,0.0
53889.0,STARLINK-5031,PAYLOAD,2023-09-07 14:01:58,15.0883897,0.0001418,53.217,107.8453,85.6673,274.4481,7.0565e-05,8.35e-06,0.0,0 STARLINK-5031,1 53889U 22119D   23250.58469969  .00000835  00000-0  70565-4 0  9999,2 53889  53.2170 107.8453 0001418  85.6673 274.4481 15.08838970 53681,6917.884,95.438,540.729,538.768,0.0
53889.0,STARLINK-5031,PAYLOAD,2023-09-07 23:34:16,15.08842396,0.0001434,53.2169,106.0612,85.6831,274.4325,9.0887e-05,1.159e-05,0.0,0 STARLINK-5031,1 53889U 22119D   23250.98213716  .00001159  00000-0  90887-4 0  9999,2 53889  53.2169 106.0612 0001434  85.6831 274.4325 15.08842396 53742,6917.873,95.437,540.73,538.746,0.0
53889.0,STARLINK-5031,PAYLOAD,2023-09-08 18:38:54,15.08844363,0.0001429,53.2169,102.4935,86.4787,273.6369,7.0653e-05,8.37e-06,0.0,0 STARLINK-5031,1 53889U 22119D   23251.77701652  .00000837  00000-0  70653-4 0  9999,2 53889  53.2169 102.4935 0001429  86.4787 273.6369 15.08844363 53445,6917.867,95.437,540.721,538.743,0.0
53889.0,STARLINK-5031,PAYLOAD,2023-09-08 21:49:40,15.08847287,0.0001377,53.2168,101.8989,90.0486,270.0664,8.2634e-05,1.028e-05,0.0,0 STARLINK-5031,1 53889U 22119D   23251.90949397  .00001028  00000-0  82634-4 0  9999,2 53889  53.2168 101.8989 0001377  90.0486 270.0664 15.08847287 53880,6917.858,95.437,540.676,538.771,0.0
53889.0,STARLINK-5031,PAYLOAD,2023-09-09 07:21:59,15.08838574,0.0001502,53.217,100.1148,85.8809,274.2355,7.7104e-06,-1.65e-06,0.0,0 STARLINK-5031,1 53889U 22119D   23252.30694091 -.00000165  00000-0  77104-5 0  9991,2 53889  53.2170 100.1148 0001502  85.8809 274.2355 15.08838574 53526,6917.885,95.438,540.789,538.711,0.0
53889.0,STARLINK-5031,PAYLOAD,2023-09-09 13:43:32,15.08838613,0.0001517,53.2165,98.9261,82.489,277.6275,3.6759e-05,2.97e-06,0.0,0 STARLINK-5031,1 53889U 22119D   23252.57190074  .00000297  00000-0  36759-4 0  9997,2 53889  53.2165  98.9261 0001517  82.4890 277.6275 15.08838613 53981,6917.885,95.438,540.799,538.7,0.0
53889.0,STARLINK-5031,PAYLOAD,2023-09-10 13:34:19,15.08844257,0.0001324,53.217,94.4645,85.9976,274.1167,1.6239e-05,-2.9e-07,0.0,0 STARLINK-5031,1 53889U 22119D   23253.56549831 -.00000029  00000-0  16239-4 0  9991,2 53889  53.2170  94.4645 0001324  85.9976 274.1167 15.08844257 54134,6917.867,95.437,540.648,538.816,0.0
53889.0,STARLINK-5031,PAYLOAD,2023-09-10 19:55:51,15.08847109,0.0001316,53.2172,93.2745,89.2058,270.9085,4.5825e-05,4.42e-06,0.0,0 STARLINK-5031,1 53889U 22119D   23253.83045529  .00000442  00000-0  45825-4 0  9997,2 53889  53.2172  93.2745 0001316  89.2058 270.9085 15.08847109 53752,6917.859,95.437,540.634,538.813,0.0
53889.0,STARLINK-5031,PAYLOAD,2023-09-11 13:25:06,15.08837332,0.0001362,53.2171,90.003,89.9573,270.1575,0.00010346,1.359e-05,0.0,0 STARLINK-5031,1 53889U 22119D   23254.55910083  .00001359  00000-0  10346-3 0  9990,2 53889  53.2171  90.0030 0001362  89.9573 270.1575 15.08837332 54285,6917.889,95.438,540.696,538.811,0.0
